{"type": "FeatureCollection", "features": [{"type": "Feature", "geometry": {"type": "LineString", "coordinates": [[-22.60556, 63.985], [-23.505221, 63.903743], [-24.399518, 63.81693], [-25.288154, 63.724617], [-26.170847, 63.62686], [-27.047328, 63.52372], [-27.917343, 63.41526], [-28.780652, 63.301544], [-29.637029, 63.18264], [-30.486264, 63.058616], [-31.328159, 62.929542], [-32.162535, 62.79549], [-32.989222, 62.656533], [-33.808069, 62.512745], [-34.618936, 62.364203], [-35.4217, 62.210982], [-36.216249, 62.053158], [-37.002486, 61.890811], [-37.780324, 61.724016], [-38.549693, 61.552853], [-39.310531, 61.377399], [-40.06279, 61.197734], [-40.806434, 61.013935], [-41.541434, 60.826081], [-42.267776, 60.634249], [-42.985452, 60.438516], [-43.694466, 60.23896], [-44.394829, 60.035657], [-45.086562, 59.828682], [-45.769692, 59.618111], [-46.444254, 59.404018], [-47.110292, 59.186476], [-47.767854, 58.965557], [-48.416995, 58.741334], [-49.057774, 58.513877], [-49.690259, 58.283255], [-50.31452, 58.049537], [-50.93063, 57.81279], [-51.538669, 57.573081], [-52.13872, 57.330474], [-52.730868, 57.085035], [-53.315203, 56.836825], [-53.891814, 56.585907], [-54.460796, 56.332341], [-55.022245, 56.076187], [-55.576259, 55.817503], [-56.122936, 55.556345], [-56.662377, 55.29277], [-57.194683, 55.026833], [-57.719957, 54.758586], [-58.238302, 54.488083], [-58.749821, 54.215375], [-59.254618, 53.940511], [-59.752798, 53.663541], [-60.244463, 53.384513], [-60.729718, 53.103473], [-61.208667, 52.820467], [-61.681412, 52.535541], [-62.148057, 52.248736], [-62.608702, 51.960097], [-63.063451, 51.669665], [-63.512404, 51.37748], [-63.955659, 51.083582], [-64.393317, 50.78801], [-64.825475, 50.490802], [-65.25223, 50.191993], [-65.673678, 49.891622], [-66.089914, 49.589721], [-66.501031, 49.286326], [-66.907122, 48.981471], [-67.308278, 48.675187], [-67.704589, 48.367507], [-68.096144, 48.058461], [-68.483029, 47.74808], [-68.865332, 47.436393], [-69.243138, 47.12343], [-69.616528, 46.809217], [-69.985587, 46.493784], [-70.350395, 46.177156], [-70.711032, 45.859359], [-71.067575, 45.540419], [-71.420102, 45.220361], [-71.768689, 44.899209], [-72.113411, 44.576986], [-72.454339, 44.253716], [-72.791547, 43.929422], [-73.125104, 43.604124], [-73.455081, 43.277845], [-73.781545, 42.950606], [-74.104564, 42.622426], [-74.424202, 42.293327], [-74.740525, 41.963327], [-75.053596, 41.632445], [-75.363478, 41.3007], [-75.67023, 40.96811], [-75.973913, 40.634693], [-76.274587, 40.300465], [-76.572308, 39.965445], [-76.867133, 39.629648], [-77.159119, 39.29309], [-77.448319, 38.955788]]}, "properties": {"transport_mode": "plane"}}]}