{"type": "FeatureCollection", "features": [{"type": "Feature", "geometry": {"type": "LineString", "coordinates": [[-0.45878, 51.467739], [-0.613699, 51.608564], [-0.769579, 51.749181], [-0.926429, 51.889586], [-1.084258, 52.029777], [-1.243078, 52.169752], [-1.402896, 52.309508], [-1.563724, 52.449044], [-1.72557, 52.588356], [-1.888445, 52.727443], [-2.052359, 52.866301], [-2.217322, 53.004928], [-2.383345, 53.143322], [-2.550437, 53.281479], [-2.71861, 53.419398], [-2.887874, 53.557075], [-3.058239, 53.694508], [-3.229717, 53.831693], [-3.402318, 53.968629], [-3.576053, 54.105313], [-3.750934, 54.24174], [-3.926971, 54.37791], [-4.104176, 54.513817], [-4.28256, 54.649461], [-4.462135, 54.784837], [-4.642913, 54.919942], [-4.824904, 55.054773], [-5.008122, 55.189328], [-5.192577, 55.323603], [-5.378283, 55.457594], [-5.56525, 55.591299], [-5.753491, 55.724714], [-5.943019, 55.857836], [-6.133846, 55.99066], [-6.325985, 56.123185], [-6.519447, 56.255406], [-6.714247, 56.38732], [-6.910396, 56.518922], [-7.107908, 56.650211], [-7.306795, 56.78118], [-7.507072, 56.911828], [-7.70875, 57.04215], [-7.911844, 57.172143], [-8.116366, 57.301801], [-8.322331, 57.431123], [-8.529752, 57.560102], [-8.738643, 57.688736], [-8.949016, 57.81702], [-9.160888, 57.94495], [-9.37427, 58.072522], [-9.589178, 58.199732], [-9.805625, 58.326574], [-10.023627, 58.453046], [-10.243196, 58.579142], [-10.464347, 58.704857], [-10.687096, 58.830188], [-10.911455, 58.955129], [-11.137441, 59.079676], [-11.365068, 59.203825], [-11.59435, 59.327569], [-11.825302, 59.450905], [-12.057939, 59.573828], [-12.292276, 59.696332], [-12.528328, 59.818412], [-12.76611, 59.940064], [-13.005637, 60.061282], [-13.246924, 60.18206], [-13.489987, 60.302394], [-13.73484, 60.422278], [-13.981498, 60.541707], [-14.229977, 60.660675], [-14.480292, 60.779176], [-14.732459, 60.897205], [-14.986492, 61.014756], [-15.242406, 61.131823], [-15.500218, 61.2484], [-15.759942, 61.364482], [-16.021593, 61.480062], [-16.285187, 61.595135], [-16.550738, 61.709693], [-16.818263, 61.823732], [-17.087775, 61.937243], [-17.35929, 62.050222], [-17.632822, 62.162662], [-17.908388, 62.274556], [-18.186001, 62.385897], [-18.465676, 62.49668], [-18.747427, 62.606896], [-19.03127, 62.71654], [-19.317218, 62.825603], [-19.605286, 62.934081], [-19.895487, 63.041964], [-20.187837, 63.149247], [-20.482348, 63.255922], [-20.779033, 63.361981], [-21.077908, 63.467418], [-21.378984, 63.572225], [-21.682274, 63.676394], [-21.987792, 63.779918], [-22.29555, 63.882789], [-22.60556, 63.985]]}, "properties": {"transport_mode": "plane"}}]}