{"type": "FeatureCollection", "features": [{"type": "Feature", "geometry": {"type": "LineString", "coordinates": [[-77.448319, 38.955788], [-77.66336, 38.89782], [-77.878051, 38.839455], [-78.09239, 38.780696], [-78.306377, 38.721544], [-78.52001, 38.662], [-78.733288, 38.602067], [-78.94621, 38.541744], [-79.158776, 38.481035], [-79.370985, 38.419939], [-79.582835, 38.35846], [-79.794326, 38.296598], [-80.005457, 38.234354], [-80.216228, 38.171731], [-80.426637, 38.108729], [-80.636684, 38.04535], [-80.846368, 37.981597], [-81.055688, 37.917469], [-81.264644, 37.852969], [-81.473235, 37.788098], [-81.681461, 37.722858], [-81.889321, 37.65725], [-82.096815, 37.591275], [-82.303941, 37.524936], [-82.5107, 37.458233], [-82.717091, 37.391169], [-82.923114, 37.323744], [-83.128767, 37.25596], [-83.334052, 37.187819], [-83.538967, 37.119322], [-83.743513, 37.050471], [-83.947688, 36.981267], [-84.151492, 36.911712], [-84.354927, 36.841807], [-84.55799, 36.771553], [-84.760682, 36.700953], [-84.963002, 36.630008], [-85.164952, 36.558718], [-85.366529, 36.487087], [-85.567735, 36.415115], [-85.768569, 36.342803], [-85.969032, 36.270154], [-86.169122, 36.197168], [-86.368841, 36.123848], [-86.568187, 36.050194], [-86.767162, 35.976209], [-86.965764, 35.901893], [-87.163995, 35.827249], [-87.361855, 35.752277], [-87.559342, 35.67698], [-87.756458, 35.601358], [-87.953203, 35.525414], [-88.149577, 35.449148], [-88.34558, 35.372563], [-88.541212, 35.295659], [-88.736473, 35.218438], [-88.931364, 35.140903], [-89.125886, 35.063053], [-89.320037, 34.984891], [-89.513819, 34.906418], [-89.707232, 34.827636], [-89.900276, 34.748545], [-90.092952, 34.669149], [-90.28526, 34.589447], [-90.4772, 34.509442], [-90.668773, 34.429135], [-90.859979, 34.348527], [-91.050819, 34.26762], [-91.241293, 34.186416], [-91.431402, 34.104915], [-91.621146, 34.02312], [-91.810525, 33.941031], [-91.999541, 33.85865], [-92.188193, 33.775979], [-92.376483, 33.69302], [-92.56441, 33.609772], [-92.751976, 33.526239], [-92.939181, 33.442421], [-93.126026, 33.35832], [-93.312511, 33.273937], [-93.498637, 33.189273], [-93.684405, 33.104331], [-93.869815, 33.019111], [-94.054868, 32.933615], [-94.239565, 32.847845], [-94.423906, 32.761801], [-94.607892, 32.675486], [-94.791525, 32.5889], [-94.974804, 32.502044], [-95.15773, 32.414922], [-95.340305, 32.327533], [-95.522528, 32.239879], [-95.704402, 32.151962], [-95.885926, 32.063782], [-96.067102, 31.975342], [-96.24793, 31.886643], [-96.428411, 31.797685], [-96.608547, 31.708471], [-96.788337, 31.619002], [-96.967783, 31.529279], [-97.146886, 31.439303]]}, "properties": {"transport_mode": "plane"}}]}