{"type": "FeatureCollection", "features": [{"type": "Feature", "geometry": {"type": "LineString", "coordinates": [[0.235, 51.885], [0.584249, 51.816565], [0.932435, 51.747096], [1.279545, 51.676598], [1.625572, 51.605076], [1.970505, 51.532537], [2.314336, 51.458986], [2.657056, 51.384429], [2.998657, 51.308872], [3.33913, 51.232321], [3.678467, 51.154782], [4.016663, 51.076261], [4.353708, 50.996764], [4.689596, 50.916296], [5.024321, 50.834865], [5.357876, 50.752476], [5.690256, 50.669135], [6.021454, 50.584848], [6.351465, 50.499622], [6.680284, 50.413462], [7.007906, 50.326376], [7.334327, 50.238368], [7.659541, 50.149445], [7.983546, 50.059614], [8.306337, 49.96888], [8.62791, 49.87725], [8.948263, 49.784731], [9.267392, 49.691327], [9.585295, 49.597046], [9.901969, 49.501894], [10.217411, 49.405877], [10.53162, 49.309001], [10.844594, 49.211272], [11.156332, 49.112697], [11.466831, 49.013282], [11.776091, 48.913033], [12.08411, 48.811956], [12.390889, 48.710058], [12.696427, 48.607344], [13.000723, 48.503822], [13.303777, 48.399496], [13.60559, 48.294373], [13.906162, 48.18846], [14.205493, 48.081762], [14.503584, 47.974286], [14.800436, 47.866037], [15.09605, 47.757022], [15.390428, 47.647246], [15.68357, 47.536717], [15.975478, 47.425439], [16.266155, 47.313418], [16.555602, 47.200662], [16.843821, 47.087175], [17.130814, 46.972963], [17.416584, 46.858033], [17.701134, 46.742391], [17.984465, 46.626041], [18.266581, 46.508991], [18.547486, 46.391245], [18.827181, 46.27281], [19.10567, 46.153691], [19.382957, 46.033894], [19.659044, 45.913425], [19.933937, 45.792288], [20.207637, 45.670491], [20.48015, 45.548039], [20.751479, 45.424936], [21.021627, 45.301189], [21.2906, 45.176804], [21.558402, 45.051784], [21.825036, 44.926137], [22.090507, 44.799868], [22.35482, 44.672981], [22.617979, 44.545482], [22.879989, 44.417376], [23.140855, 44.28867], [23.400582, 44.159367], [23.659174, 44.029473], [23.916636, 43.898994], [24.172974, 43.767934], [24.428192, 43.636299], [24.682296, 43.504093], [24.935291, 43.371323], [25.187183, 43.237991], [25.437976, 43.104105], [25.687676, 42.969668], [25.936289, 42.834685], [26.18382, 42.699162], [26.430275, 42.563103], [26.675658, 42.426513], [26.919977, 42.289397], [27.163236, 42.151759], [27.405442, 42.013605], [27.646599, 41.874938], [27.886714, 41.735764], [28.125793, 41.596086], [28.363842, 41.455911], [28.600865, 41.315241], [28.83687, 41.174082], [29.071863, 41.032438], [29.305848, 40.890313]]}, "properties": {"transport_mode": "plane"}}]}